{
  "type": "FeatureCollection",
  "features": [
    {
      "type": "Feature",
      "properties": {
        "norad_id": 29930,
        "name": "FENGYUN 1C DEB",
        "group": "fengyun-1c-debris",
        "lat": -56.89564895160899,
        "lon": 35.03594164017555,
        "alt_km": 947.6821677236721,
        "timestamp": "2025-12-12T22:42:12.818100+00:00",
        "meta_object_name": "FENGYUN 1C DEB",
        "meta_object_id": "1999-025JC",
        "meta_epoch": "2025-12-12T03:42:06.919200",
        "meta_mean_motion": 14.20815768,
        "meta_eccentricity": 0.01645651,
        "meta_inclination": 99.0442,
        "meta_ra_of_asc_node": 228.3655,
        "meta_arg_of_pericenter": 55.2297,
        "meta_mean_anomaly": 95.4753,
        "meta_ephemeris_type": 0,
        "meta_classification_type": "U",
        "meta_norad_cat_id": 29930,
        "meta_element_set_no": 999,
        "meta_rev_at_epoch": 97882,
        "meta_bstar": 0.00034922357,
        "meta_mean_motion_dot": 8.18e-06,
        "meta_mean_motion_ddot": 0,
        "tle_line1": "1 29930U 99025JC  25346.15424675  .00000818  00000+0  34922-3 0  9991",
        "tle_line2": "2 29930  99.0442 228.3655 0164565  55.2297  95.4753 14.20815768978820"
      },
      "geometry": {
        "type": "Point",
        "coordinates": [
          35.03594164017555,
          -56.89564895160899
        ]
      }
    },
    {
      "type": "Feature",
      "properties": {
        "norad_id": 29931,
        "name": "FENGYUN 1C DEB",
        "group": "fengyun-1c-debris",
        "lat": -46.84817799794634,
        "lon": -167.32758054179146,
        "alt_km": 903.5713063158801,
        "timestamp": "2025-12-12T22:42:12.818111+00:00",
        "meta_object_name": "FENGYUN 1C DEB",
        "meta_object_id": "1999-025JD",
        "meta_epoch": "2025-12-12T01:14:31.748640",
        "meta_mean_motion": 14.03892187,
        "meta_eccentricity": 0.0032564,
        "meta_inclination": 98.8596,
        "meta_ra_of_asc_node": 21.3779,
        "meta_arg_of_pericenter": 95.64,
        "meta_mean_anomaly": 294.6707,
        "meta_ephemeris_type": 0,
        "meta_classification_type": "U",
        "meta_norad_cat_id": 29931,
        "meta_element_set_no": 999,
        "meta_rev_at_epoch": 96803,
        "meta_bstar": 0.00030129075,
        "meta_mean_motion_dot": 4.35e-06,
        "meta_mean_motion_ddot": 0,
        "tle_line1": "1 29931U 99025JD  25346.05175635  .00000435  00000+0  30129-3 0  9990",
        "tle_line2": "2 29931  98.8596  21.3779 0032564  95.6400 294.6707 14.03892187968038"
      },
      "geometry": {
        "type": "Point",
        "coordinates": [
          -167.32758054179146,
          -46.84817799794634
        ]
      }
    },
    {
      "type": "Feature",
      "properties": {
        "norad_id": 29932,
        "name": "FENGYUN 1C DEB",
        "group": "fengyun-1c-debris",
        "lat": -30.938829644123235,
        "lon": 2.850792523517962,
        "alt_km": 847.4638345600733,
        "timestamp": "2025-12-12T22:42:12.818121+00:00",
        "meta_object_name": "FENGYUN 1C DEB",
        "meta_object_id": "1999-025JE",
        "meta_epoch": "2025-12-10T23:31:49.915776",
        "meta_mean_motion": 14.16759413,
        "meta_eccentricity": 0.0038581,
        "meta_inclination": 98.6342,
        "meta_ra_of_asc_node": 355.7179,
        "meta_arg_of_pericenter": 75.3686,
        "meta_mean_anomaly": 314.5456,
        "meta_ephemeris_type": 0,
        "meta_classification_type": "U",
        "meta_norad_cat_id": 29932,
        "meta_element_set_no": 999,
        "meta_rev_at_epoch": 97559,
        "meta_bstar": 0.00040156,
        "meta_mean_motion_dot": 7.67e-06,
        "meta_mean_motion_ddot": 0,
        "tle_line1": "1 29932U 99025JE  25344.98043884  .00000767  00000+0  40156-3 0  9990",
        "tle_line2": "2 29932  98.6342 355.7179 0038581  75.3686 314.5456 14.16759413975590"
      },
      "geometry": {
        "type": "Point",
        "coordinates": [
          2.850792523517962,
          -30.938829644123235
        ]
      }
    },
    {
      "type": "Feature",
      "properties": {
        "norad_id": 29933,
        "name": "FENGYUN 1C DEB",
        "group": "fengyun-1c-debris",
        "lat": 79.75009326223052,
        "lon": 31.774058094251277,
        "alt_km": 668.152835546347,
        "timestamp": "2025-12-12T22:42:12.818131+00:00",
        "meta_object_name": "FENGYUN 1C DEB",
        "meta_object_id": "1999-025JF",
        "meta_epoch": "2025-12-12T06:10:57.052992",
        "meta_mean_motion": 14.65859234,
        "meta_eccentricity": 0.00043987,
        "meta_inclination": 98.7485,
        "meta_ra_of_asc_node": 89.4258,
        "meta_arg_of_pericenter": 330.7256,
        "meta_mean_anomaly": 83.3419,
        "meta_ephemeris_type": 0,
        "meta_classification_type": "U",
        "meta_norad_cat_id": 29933,
        "meta_element_set_no": 999,
        "meta_rev_at_epoch": 98498,
        "meta_bstar": 0.0052378461,
        "meta_mean_motion_dot": 0.00028677,
        "meta_mean_motion_ddot": 0,
        "tle_line1": "1 29933U 99025JF  25346.25760478  .00028677  00000+0  52378-2 0  9996",
        "tle_line2": "2 29933  98.7485  89.4258 0004398 330.7256  83.3419 14.65859234984988"
      },
      "geometry": {
        "type": "Point",
        "coordinates": [
          31.774058094251277,
          79.75009326223052
        ]
      }
    },
    {
      "type": "Feature",
      "properties": {
        "norad_id": 29934,
        "name": "FENGYUN 1C DEB",
        "group": "fengyun-1c-debris",
        "lat": 13.786042286904681,
        "lon": 31.624109893837975,
        "alt_km": 719.5835021988987,
        "timestamp": "2025-12-12T22:42:12.818141+00:00",
        "meta_object_name": "FENGYUN 1C DEB",
        "meta_object_id": "1999-025JG",
        "meta_epoch": "2025-12-12T02:57:10.313856",
        "meta_mean_motion": 14.63778886,
        "meta_eccentricity": 0.01006392,
        "meta_inclination": 98.9042,
        "meta_ra_of_asc_node": 32.94,
        "meta_arg_of_pericenter": 254.1447,
        "meta_mean_anomaly": 104.8642,
        "meta_ephemeris_type": 0,
        "meta_classification_type": "U",
        "meta_norad_cat_id": 29934,
        "meta_element_set_no": 999,
        "meta_rev_at_epoch": 99763,
        "meta_bstar": 0.0012976696,
        "meta_mean_motion_dot": 7.228e-05,
        "meta_mean_motion_ddot": 0,
        "tle_line1": "1 29934U 99025JG  25346.12303604  .00007228  00000+0  12977-2 0  9997",
        "tle_line2": "2 29934  98.9042  32.9400 0100639 254.1447 104.8642 14.63778886997632"
      },
      "geometry": {
        "type": "Point",
        "coordinates": [
          31.624109893837975,
          13.786042286904681
        ]
      }
    },
    {
      "type": "Feature",
      "properties": {
        "norad_id": 29935,
        "name": "FENGYUN 1C DEB",
        "group": "fengyun-1c-debris",
        "lat": 77.10009972798541,
        "lon": -90.32618563535115,
        "alt_km": 883.5262198593036,
        "timestamp": "2025-12-12T22:42:12.818151+00:00",
        "meta_object_name": "FENGYUN 1C DEB",
        "meta_object_id": "1999-025JH",
        "meta_epoch": "2025-12-11T04:02:16.773216",
        "meta_mean_motion": 14.14236735,
        "meta_eccentricity": 0.01501119,
        "meta_inclination": 98.4618,
        "meta_ra_of_asc_node": 47.4492,
        "meta_arg_of_pericenter": 220.6701,
        "meta_mean_anomaly": 194.8609,
        "meta_ephemeris_type": 0,
        "meta_classification_type": "U",
        "meta_norad_cat_id": 29935,
        "meta_element_set_no": 999,
        "meta_rev_at_epoch": 97520,
        "meta_bstar": 0.00016816589,
        "meta_mean_motion_dot": 3.16e-06,
        "meta_mean_motion_ddot": 0,
        "tle_line1": "1 29935U 99025JH  25345.16824969  .00000316  00000+0  16817-3 0  9992",
        "tle_line2": "2 29935  98.4618  47.4492 0150111 220.6701 194.8609 14.14236735975209"
      },
      "geometry": {
        "type": "Point",
        "coordinates": [
          -90.32618563535115,
          77.10009972798541
        ]
      }
    },
    {
      "type": "Feature",
      "properties": {
        "norad_id": 29936,
        "name": "FENGYUN 1C DEB",
        "group": "fengyun-1c-debris",
        "lat": 24.22875992270844,
        "lon": -75.74180093021013,
        "alt_km": 703.3031963871799,
        "timestamp": "2025-12-12T22:42:12.818161+00:00",
        "meta_object_name": "FENGYUN 1C DEB",
        "meta_object_id": "1999-025JJ",
        "meta_epoch": "2025-12-12T06:55:13.581696",
        "meta_mean_motion": 14.35311348,
        "meta_eccentricity": 0.01139553,
        "meta_inclination": 98.6563,
        "meta_ra_of_asc_node": 99.6675,
        "meta_arg_of_pericenter": 188.3762,
        "meta_mean_anomaly": 171.5524,
        "meta_ephemeris_type": 0,
        "meta_classification_type": "U",
        "meta_norad_cat_id": 29936,
        "meta_element_set_no": 999,
        "meta_rev_at_epoch": 98924,
        "meta_bstar": 0.00034098442,
        "meta_mean_motion_dot": 1.005e-05,
        "meta_mean_motion_ddot": 0,
        "tle_line1": "1 29936U 99025JJ  25346.28835164  .00001005  00000+0  34098-3 0  9993",
        "tle_line2": "2 29936  98.6563  99.6675 0113955 188.3762 171.5524 14.35311348989249"
      },
      "geometry": {
        "type": "Point",
        "coordinates": [
          -75.74180093021013,
          24.22875992270844
        ]
      }
    }
  ]
}